NORAD_CAT_ID,OBJECT_NAME,OBJECT_TYPE,EPOCH,MEAN_MOTION,ECCENTRICITY,INCLINATION,RA_OF_ASC_NODE,ARG_OF_PERICENTER,MEAN_ANOMALY,BSTAR,MEAN_MOTION_DOT,MEAN_MOTION_DDOT,TLE_LINE0,TLE_LINE1,TLE_LINE2,SEMIMAJOR_AXIS,PERIOD,APOGEE,PERIGEE,DECAYED
52362.0,STARLINK-3848,PAYLOAD,2022-07-13 22:00:00,15.56323011,0.0001957,53.2174,65.3192,31.5648,91.1764,-0.016287,-0.01061659,0.0,0 STARLINK-3848,1 52362U 22045AH  22194.91667824 -.01061659  00000-0 -16287-1 0  9997,2 52362  53.2174  65.3192 0001957  31.5648  91.1764 15.56323011  1306,6776.446999999999,92.526,399.638,396.985,0.0
52362.0,STARLINK-3848,PAYLOAD,2022-07-14 08:00:01,15.55376061,0.0001460999999999,53.2174,63.3051,42.4848,255.3467,-0.0169479999999999,-0.01065855,0.0,0 STARLINK-3848,1 52362U 22045AH  22195.33334491 -.01065855  00000-0 -16948-1 0  9991,2 52362  53.2174  63.3051 0001461  42.4848 255.3467 15.55376061 14413,6779.196999999999,92.582,402.052,400.071,0.0
52362.0,STARLINK-3848,PAYLOAD,2022-07-14 14:00:01,15.54803441,0.0001673,53.2174,62.0978,38.0486,220.1539,-0.017215,-0.01060511,0.0,0 STARLINK-3848,1 52362U 22045AH  22195.58334491 -.01060511  00000-0 -17215-1 0  9990,2 52362  53.2174  62.0978 0001673  38.0486 220.1539 15.54803441  1301,6780.861,92.616,403.861,401.592,0.0
52362.0,STARLINK-3848,PAYLOAD,2022-07-14 22:00:00,15.5404548,0.0001838,53.2173,60.4928,29.3497,295.2121,-0.017747,-0.0106297,0.0,0 STARLINK-3848,1 52362U 22045AH  22195.91667824 -.01062970  00000-0 -17747-1 0  9997,2 52362  53.2173  60.4928 0001838  29.3497 295.2121 15.54045480  1306,6783.066,92.661,406.177,403.684,0.0
52362.0,STARLINK-3848,PAYLOAD,2022-07-15 06:00:00,15.5328532,0.0001508,53.2172,58.887,36.9937,353.0173,-0.018221,-0.01061421,0.0,0 STARLINK-3848,1 52362U 22045AH  22196.25001157 -.01061421  00000-0 -18221-1 0  9994,2 52362  53.2172  58.8870 0001508  36.9937 353.0173 15.53285320 14569,6785.279,92.707,408.167,406.12,0.0
52362.0,STARLINK-3848,PAYLOAD,2022-07-15 14:00:01,15.52524249,0.0001756,53.2173,57.2823,34.3541,60.1938,-0.018679,-0.01058686,0.0,0 STARLINK-3848,1 52362U 22045AH  22196.58334491 -.01058686  00000-0 -18679-1 0  9996,2 52362  53.2173  57.2823 0001756  34.3541  60.1938 15.52524249  1307,6787.496,92.752,410.55300000000005,408.169,0.0
52362.0,STARLINK-3848,PAYLOAD,2022-07-15 22:00:00,15.51765509,0.0001925,53.2171,55.6828,36.3471,121.8223,-0.019215,-0.01059507,0.0,0 STARLINK-3848,1 52362U 22045AH  22196.91667824 -.01059507  00000-0 -19215-1 0  9992,2 52362  53.2171  55.6828 0001925  36.3471 121.8223 15.51765509  1301,6789.708000000001,92.798,412.88,410.266,0.0
52362.0,STARLINK-3848,PAYLOAD,2022-07-16 06:00:00,15.50981803,0.0001715,53.2173,54.0831,43.8836,177.0017,-0.0187,-0.01007253,0.0,0 STARLINK-3848,1 52362U 22045AH  22197.25001157 -.01007253  00000-0 -18700-1 0  9990,2 52362  53.2173  54.0831 0001715  43.8836 177.0017 15.50981803 14714,6791.995,92.844,415.025,412.695,0.0
52362.0,STARLINK-3848,PAYLOAD,2022-07-16 14:00:01,15.50139968,0.000184,53.2175,52.4856,45.1336,237.5559,-0.006387,-0.0035039,0.0,0 STARLINK-3848,1 52362U 22045AH  22197.58334491 -.00350390  00000-0 -63870-2 0  9997,2 52362  53.2175  52.4856 0001840  45.1336 237.5559 15.50139968 14769,6794.454000000002,92.895,417.569,415.069,0.0
52362.0,STARLINK-3848,PAYLOAD,2022-07-16 22:00:00,15.49886943,0.0001904,53.2175,50.894,35.0816,308.6697,-5.099300000000001e-05,-3.345e-05,0.0,0 STARLINK-3848,1 52362U 22045AH  22197.91667824 -.00003345  00000-0 -50993-4 0  9992,2 52362  53.2175  50.8940 0001904  35.0816 308.6697 15.49886943 14827,6795.194,92.91,418.352,415.765,0.0
52362.0,STARLINK-3848,PAYLOAD,2022-07-17 14:00:01,15.49917352,0.0001834,53.2156,47.7153,42.5919,63.0726,-0.00010603,-6.472e-05,0.0,0 STARLINK-3848,1 52362U 22045AH  22198.58334491 -.00006472  00000-0 -10603-3 0  9994,2 52362  53.2156  47.7153 0001834  42.5919  63.0726 15.49917352 14921,6795.105,92.908,418.216,415.723,0.0
52362.0,STARLINK-3848,PAYLOAD,2022-07-17 22:00:00,15.49931955,0.0002,53.2164,46.1208,34.9884,131.6275,-0.0029521,-0.0016480999999999,0.0,0 STARLINK-3848,1 52362U 22045AH  22198.91667824 -.00164810  00000-0 -29521-2 0  9999,2 52362  53.2164  46.1208 0002000  34.9884 131.6275 15.49931955 14977,6795.062,92.907,418.286,415.568,0.0
52362.0,STARLINK-3848,PAYLOAD,2022-07-18 06:00:00,15.49943672,0.0001896,53.2166,44.5225,33.7297,193.7568,-0.0099268,-0.00528574,0.0,0 STARLINK-3848,1 52362U 22045AH  22199.25001157 -.00528574  00000-0 -99268-2 0  9994,2 52362  53.2166  44.5225 0001896  33.7297 193.7568 15.49943672 15027,6795.028,92.907,418.181,415.604,0.0
52362.0,STARLINK-3848,PAYLOAD,2022-07-18 14:00:01,15.49700583,0.000176,53.2174,42.9231,33.5762,254.6542,-0.020831,-0.01065943,0.0,0 STARLINK-3848,1 52362U 22045AH  22199.58334491 -.01065943  00000-0 -20831-1 0  9996,2 52362  53.2174  42.9231 0001760  33.5762 254.6542 15.49700583 15076,6795.738,92.921,418.799,416.407,0.0
52362.0,STARLINK-3848,PAYLOAD,2022-07-18 22:00:00,15.48936526,0.0001799,53.2173,41.3299,29.9201,318.5342,-0.021308,-0.01061631,0.0,0 STARLINK-3848,1 52362U 22045AH  22199.91667824 -.01061631  00000-0 -21308-1 0  9992,2 52362  53.2173  41.3299 0001799  29.9201 318.5342 15.48936526  1307,6797.973000000001,92.967,421.061,418.615,0.0
52362.0,STARLINK-3848,PAYLOAD,2022-07-19 14:00:01,15.47414257,0.0001838,53.2175,38.1439,33.8254,72.3366,-0.022342,-0.01055692,0.0,0 STARLINK-3848,1 52362U 22045AH  22200.58334491 -.01055692  00000-0 -22342-1 0  9998,2 52362  53.2175  38.1439 0001838  33.8254  72.3366 15.47414257 15234,6802.43,93.058,425.546,423.045,0.0
52362.0,STARLINK-3848,PAYLOAD,2022-07-19 22:00:00,15.46654951,0.000182,53.2173,36.5567,39.6232,124.0211,-0.02294,-0.01055603,0.0,0 STARLINK-3848,1 52362U 22045AH  22200.91667824 -.01055603  00000-0 -22940-1 0  9990,2 52362  53.2173  36.5567 0001820  39.6232 124.0211 15.46654951  1300,6804.656999999997,93.104,427.76,425.283,0.0
52362.0,STARLINK-3848,PAYLOAD,2022-07-20 14:00:01,15.45137055,0.0001751,53.2176,33.3818,36.4484,239.4256,-0.024205,-0.01056666,0.0,0 STARLINK-3848,1 52362U 22045AH  22201.58334491 -.01056666  00000-0 -24205-1 0  9991,2 52362  53.2176  33.3818 0001751  36.4484 239.4256 15.45137055 15387,6809.111999999999,93.196,432.17,429.785,0.0
52362.0,STARLINK-3848,PAYLOAD,2022-07-20 22:00:01,15.44378024,0.0001732,53.2175,31.7999,33.766,296.9170000000001,-0.024881,-0.0105808,0.0,0 STARLINK-3848,1 52362U 22045AH  22201.91668981 -.01058080  00000-0 -24881-1 0  9994,2 52362  53.2175  31.7999 0001732  33.7660 296.9170 15.44378024  1305,6811.343000000003,93.241,434.388,432.029,0.0
52362.0,STARLINK-3848,PAYLOAD,2022-07-21 08:00:01,15.43425723,0.0001763,53.2174,29.8208,36.1463,91.6234,-0.025574,-0.01053259,0.0,0 STARLINK-3848,1 52362U 22045AH  22202.33334491 -.01053259  00000-0 -25574-1 0  9990,2 52362  53.2174  29.8208 0001763  36.1463  91.6234 15.43425723 15503,6814.145,93.299,437.211,434.8080000000001,0.0
52362.0,STARLINK-3848,PAYLOAD,2022-07-21 14:00:01,15.42857576,0.0002018,53.2177,28.6358,27.4271,50.0109,-0.026132,-0.01070276,0.0,0 STARLINK-3848,1 52362U 22045AH  22202.58335648 -.01070276  00000-0 -26132-1 0  9991,2 52362  53.2177  28.6358 0002018  27.4271  50.0109 15.42857576  1300,6815.816999999999,93.333,439.0580000000001,436.307,0.0
52362.0,STARLINK-3848,PAYLOAD,2022-07-21 22:00:00,15.42098986,0.0001863,53.2176,27.0594,23.4056,105.9743,-0.026844,-0.01071487,0.0,0 STARLINK-3848,1 52362U 22045AH  22202.91667824 -.01071487  00000-0 -26844-1 0  9997,2 52362  53.2176  27.0594 0001863  23.4056 105.9743 15.42098986  1304,6818.052,93.379,441.18800000000016,438.647,0.0
52362.0,STARLINK-3848,PAYLOAD,2022-07-22 06:00:00,15.41338742,0.0001936,53.2175,25.481,34.5665,145.9097,-0.027496,-0.01069989,0.0,0 STARLINK-3848,1 52362U 22045AH  22203.25001157 -.01069989  00000-0 -27496-1 0  9994,2 52362  53.2175  25.4810 0001936  34.5665 145.9097 15.41338742 15640,6820.294,93.425,443.48,440.839,0.0
52362.0,STARLINK-3848,PAYLOAD,2022-07-22 22:00:00,15.39818001,0.0001486999999999,53.2175,22.3352,50.4232,229.5043,-0.0288259999999999,-0.01066493,0.0,0 STARLINK-3848,1 52362U 22045AH  22203.91667824 -.01066493  00000-0 -28826-1 0  9991,2 52362  53.2175  22.3352 0001487  50.4232 229.5043 15.39818001  1301,6824.784000000002,93.518,447.664,445.634,0.0
52362.0,STARLINK-3848,PAYLOAD,2022-07-23 08:00:01,15.38868504,0.0001224,53.2174,20.3693,61.1906,9.0423,-0.029767,-0.01067161,0.0,0 STARLINK-3848,1 52362U 22045AH  22204.33334491 -.01067161  00000-0 -29767-1 0  9997,2 52362  53.2174  20.3693 0001224  61.1906   9.0423 15.38868504 15818,6827.590999999999,93.575,450.292,448.62,0.0
52362.0,STARLINK-3848,PAYLOAD,2022-07-23 14:00:01,15.38301841,0.0001404,53.2176,19.193,46.3654,329.4276,-0.030458,-0.01071442,0.0,0 STARLINK-3848,1 52362U 22045AH  22204.58335648 -.01071442  00000-0 -30458-1 0  9995,2 52362  53.2176  19.1930 0001404  46.3654 329.4276 15.38301841  1305,6829.268,93.61,452.091,450.174,0.0
52362.0,STARLINK-3848,PAYLOAD,2022-07-23 22:00:00,15.37538667,0.0001323,53.2173,17.6271,55.306,6.9551,-0.031037,-0.01065375,0.0,0 STARLINK-3848,1 52362U 22045AH  22204.91667824 -.01065375  00000-0 -31037-1 0  9998,2 52362  53.2173  17.6271 0001323  55.3060   6.9551 15.37538667  1304,6831.526999999999,93.656,454.296,452.489,0.0
52362.0,STARLINK-3848,PAYLOAD,2022-07-24 06:00:00,15.3678006,0.0001474,53.2174,16.0596,48.968,58.9129,-0.031861,-0.01066869,0.0,0 STARLINK-3848,1 52362U 22045AH  22205.25001157 -.01066869  00000-0 -31861-1 0  9991,2 52362  53.2174  16.0596 0001474  48.9680  58.9129 15.36780060 15950,6833.775,93.702,456.648,454.633,0.0
52362.0,STARLINK-3848,PAYLOAD,2022-07-24 14:00:01,15.36021212,0.0001582,53.2175,14.496,51.0397,101.547,-0.032684,-0.0106778,0.0,0 STARLINK-3848,1 52362U 22045AH  22205.58334491 -.01067780  00000-0 -32684-1 0  9994,2 52362  53.2175  14.4960 0001582  51.0397 101.5470 15.36021212  1303,6836.026,93.749,458.972,456.809,0.0
